[
    {
        "Altitude(m)": 559716.1717743136,
        "Argument of Periapsis(deg)": 0.006622991110713501,
        "Eccentricity": 0.0,
        "Inclination(deg)": 53.0,
        "Latitude(deg)": -22.420600637162583,
        "Longitude(deg)": -72.76151472698125,
        "Mean Anomaly(deg)": -151.72660713242243,
        "RAAN(deg)": 189.99014336852804,
        "Satellite Name": "Starlink Shell 1 848",
        "Satellite Number": 848,
        "Semi-Major Axis(m)": 6931778.249405717,
        "Time(s)": 190
    },
    {
        "Altitude(m)": 559880.8020290245,
        "Argument of Periapsis(deg)": 0.0069715695902247375,
        "Eccentricity": 0.0,
        "Inclination(deg)": 53.0,
        "Latitude(deg)": -22.897935424890193,
        "Longitude(deg)": -72.36152538271847,
        "Mean Anomaly(deg)": -151.09977592886574,
        "RAAN(deg)": 189.98962459845052,
        "Satellite Name": "Starlink Shell 1 848",
        "Satellite Number": 848,
        "Semi-Major Axis(m)": 6931778.249405717,
        "Time(s)": 200
    },
    {
        "Altitude(m)": 560046.5533780264,
        "Argument of Periapsis(deg)": 0.007320148069735974,
        "Eccentricity": 0.0,
        "Inclination(deg)": 53.0,
        "Latitude(deg)": -23.37399373571653,
        "Longitude(deg)": -71.95845754342552,
        "Mean Anomaly(deg)": -150.472944725309,
        "RAAN(deg)": 189.98910582837308,
        "Satellite Name": "Starlink Shell 1 848",
        "Satellite Number": 848,
        "Semi-Major Axis(m)": 6931778.249405717,
        "Time(s)": 210
    },
    {
        "Altitude(m)": 560213.3666031625,
        "Argument of Periapsis(deg)": 0.007668726549247212,
        "Eccentricity": 0.0,
        "Inclination(deg)": 53.0,
        "Latitude(deg)": -23.84873784240879,
        "Longitude(deg)": -71.55222579451292,
        "Mean Anomaly(deg)": -149.8461135217523,
        "RAAN(deg)": 189.98858705829562,
        "Satellite Name": "Starlink Shell 1 848",
        "Satellite Number": 848,
        "Semi-Major Axis(m)": 6931778.249405717,
        "Time(s)": 220
    },
    {
        "Altitude(m)": 560381.1818637612,
        "Argument of Periapsis(deg)": 0.00801730502875845,
        "Eccentricity": 0.0,
        "Inclination(deg)": 53.0,
        "Latitude(deg)": -24.322129268616905,
        "Longitude(deg)": -71.14274352980907,
        "Mean Anomaly(deg)": -149.21928231819555,
        "RAAN(deg)": 189.98806828821813,
        "Satellite Name": "Starlink Shell 1 848",
        "Satellite Number": 848,
        "Semi-Major Axis(m)": 6931778.249405717,
        "Time(s)": 230
    },
    {
        "Altitude(m)": 560549.9387234283,
        "Argument of Periapsis(deg)": 0.008365883508269684,
        "Eccentricity": 0.0,
        "Inclination(deg)": 53.0,
        "Latitude(deg)": -24.79412876410976,
        "Longitude(deg)": -70.729922428947,
        "Mean Anomaly(deg)": -148.59245111463886,
        "RAAN(deg)": 189.98754951814067,
        "Satellite Name": "Starlink Shell 1 848",
        "Satellite Number": 848,
        "Semi-Major Axis(m)": 6931778.249405717,
        "Time(s)": 240
    },
    {
        "Altitude(m)": 560719.5761771313,
        "Argument of Periapsis(deg)": 0.008714461987780921,
        "Eccentricity": 0.0,
        "Inclination(deg)": 53.0,
        "Latitude(deg)": -25.264696279495553,
        "Longitude(deg)": -70.31367344887403,
        "Mean Anomaly(deg)": -147.96561991108217,
        "RAAN(deg)": 189.9870307480632,
        "Satellite Name": "Starlink Shell 1 848",
        "Satellite Number": 848,
        "Semi-Major Axis(m)": 6931778.249405717,
        "Time(s)": 250
    },
    {
        "Altitude(m)": 560890.0326785436,
        "Argument of Periapsis(deg)": 0.009063040467292158,
        "Eccentricity": 0.0,
        "Inclination(deg)": 53.0,
        "Latitude(deg)": -25.733790940421155,
        "Longitude(deg)": -69.89390630387042,
        "Mean Anomaly(deg)": -147.3387887075254,
        "RAAN(deg)": 189.9865119779857,
        "Satellite Name": "Starlink Shell 1 848",
        "Satellite Number": 848,
        "Semi-Major Axis(m)": 6931778.249405717,
        "Time(s)": 260
    },
    {
        "Altitude(m)": 561061.2461676196,
        "Argument of Periapsis(deg)": 0.009411618946803396,
        "Eccentricity": 0.0,
        "Inclination(deg)": 53.0,
        "Latitude(deg)": -26.201371021253262,
        "Longitude(deg)": -69.47052894709444,
        "Mean Anomaly(deg)": -146.7119575039687,
        "RAAN(deg)": 189.98599320790825,
        "Satellite Name": "Starlink Shell 1 848",
        "Satellite Number": 848,
        "Semi-Major Axis(m)": 6931778.249405717,
        "Time(s)": 270
    },
    {
        "Altitude(m)": 561233.1540984194,
        "Argument of Periapsis(deg)": 0.009760197426314633,
        "Eccentricity": 0.0,
        "Inclination(deg)": 53.0,
        "Latitude(deg)": -26.667393918243963,
        "Longitude(deg)": -69.04344856668328,
        "Mean Anomaly(deg)": -146.08512630041196,
        "RAAN(deg)": 189.98547443783076,
        "Satellite Name": "Starlink Shell 1 848",
        "Satellite Number": 848,
        "Semi-Major Axis(m)": 6931778.249405717,
        "Time(s)": 280
    },
    {
        "Altitude(m)": 561405.693467185,
        "Argument of Periapsis(deg)": 0.01010877590582587,
        "Eccentricity": 0.0,
        "Inclination(deg)": 53.0,
        "Latitude(deg)": -27.13181612218225,
        "Longitude(deg)": -68.61257107082803,
        "Mean Anomaly(deg)": -145.4582950968553,
        "RAAN(deg)": 189.98495566775333,
        "Satellite Name": "Starlink Shell 1 848",
        "Satellite Number": 848,
        "Semi-Major Axis(m)": 6931778.249405717,
        "Time(s)": 290
    },
    {
        "Altitude(m)": 561578.8008405803,
        "Argument of Periapsis(deg)": 0.010457354385337106,
        "Eccentricity": 0.0,
        "Inclination(deg)": 53.0,
        "Latitude(deg)": -27.594593190540955,
        "Longitude(deg)": -68.17780057487259,
        "Mean Anomaly(deg)": -144.83146389329855,
        "RAAN(deg)": 189.9844368976758,
        "Satellite Name": "Starlink Shell 1 848",
        "Satellite Number": 848,
        "Semi-Major Axis(m)": 6931778.249405717,
        "Time(s)": 300
    },
    {
        "Altitude(m)": 561752.4123841518,
        "Argument of Periapsis(deg)": 0.010805932864848343,
        "Eccentricity": 0.0,
        "Inclination(deg)": 53.0,
        "Latitude(deg)": -28.055679719125823,
        "Longitude(deg)": -67.73904040350534,
        "Mean Anomaly(deg)": -144.20463268974183,
        "RAAN(deg)": 189.98391812759837,
        "Satellite Name": "Starlink Shell 1 848",
        "Satellite Number": 848,
        "Semi-Major Axis(m)": 6931778.249405717,
        "Time(s)": 310
    },
    {
        "Altitude(m)": 561926.46389097,
        "Argument of Periapsis(deg)": 0.01115451134435958,
        "Eccentricity": 0.0,
        "Inclination(deg)": 53.0,
        "Latitude(deg)": -28.515029313238962,
        "Longitude(deg)": -67.29619258249585,
        "Mean Anomaly(deg)": -143.57780148618514,
        "RAAN(deg)": 189.98339935752085,
        "Satellite Name": "Starlink Shell 1 848",
        "Satellite Number": 848,
        "Semi-Major Axis(m)": 6931778.249405717,
        "Time(s)": 320
    },
    {
        "Altitude(m)": 562100.8908104344,
        "Argument of Periapsis(deg)": 0.011503089823870818,
        "Eccentricity": 0.0,
        "Inclination(deg)": 53.0,
        "Latitude(deg)": -28.972594558370353,
        "Longitude(deg)": -66.84915733307008,
        "Mean Anomaly(deg)": -142.95097028262842,
        "RAAN(deg)": 189.98288058744342,
        "Satellite Name": "Starlink Shell 1 848",
        "Satellite Number": 848,
        "Semi-Major Axis(m)": 6931778.249405717,
        "Time(s)": 330
    },
    {
        "Altitude(m)": 562275.6282772232,
        "Argument of Periapsis(deg)": 0.011851668303382053,
        "Eccentricity": 0.0,
        "Inclination(deg)": 53.0,
        "Latitude(deg)": -29.42832699043559,
        "Longitude(deg)": -66.39783408203266,
        "Mean Anomaly(deg)": -142.32413907907173,
        "RAAN(deg)": 189.98236181736596,
        "Satellite Name": "Starlink Shell 1 848",
        "Satellite Number": 848,
        "Semi-Major Axis(m)": 6931778.249405717,
        "Time(s)": 340
    },
    {
        "Altitude(m)": 562450.6111404017,
        "Argument of Periapsis(deg)": 0.012200246782893292,
        "Eccentricity": 0.0,
        "Inclination(deg)": 53.0,
        "Latitude(deg)": -29.88217706557962,
        "Longitude(deg)": -65.9421209621326,
        "Mean Anomaly(deg)": -141.69730787551495,
        "RAAN(deg)": 189.98184304728846,
        "Satellite Name": "Starlink Shell 1 848",
        "Satellite Number": 848,
        "Semi-Major Axis(m)": 6931778.249405717,
        "Time(s)": 350
    },
    {
        "Altitude(m)": 562625.7739926352,
        "Argument of Periapsis(deg)": 0.012548825262404526,
        "Eccentricity": 0.0,
        "Inclination(deg)": 53.0,
        "Latitude(deg)": -30.334094129571305,
        "Longitude(deg)": -65.48191431581289,
        "Mean Anomaly(deg)": -141.07047667195826,
        "RAAN(deg)": 189.981324277211,
        "Satellite Name": "Starlink Shell 1 848",
        "Satellite Number": 848,
        "Semi-Major Axis(m)": 6931778.249405717,
        "Time(s)": 360
    },
    {
        "Altitude(m)": 562801.051199521,
        "Argument of Periapsis(deg)": 0.012897403741915765,
        "Eccentricity": 0.0,
        "Inclination(deg)": 53.0,
        "Latitude(deg)": -30.784026386818653,
        "Longitude(deg)": -65.017109715498,
        "Mean Anomaly(deg)": -140.44364546840154,
        "RAAN(deg)": 189.98080550713354,
        "Satellite Name": "Starlink Shell 1 848",
        "Satellite Number": 848,
        "Semi-Major Axis(m)": 6931778.249405717,
        "Time(s)": 370
    }
]